start=new Date('2022-11-13T00:00:00.000Z').valueOf();
sats=[{"PERIOD":"91.530","SEMIMAJOR_AXIS":"6727.762","APOAPSIS":"350.946","REF_FRAME":"TEME","MEAN_ELEMENT_THEORY":"SGP4","TIME_SYSTEM":"UTC","TLE_LINE1":"1 54205U 22141BA  22316.91667824 -.00129276  00000-0 -92893-3 0  9996","NORAD_CAT_ID":"54205","PERIAPSIS":"348.309","COUNTRY_CODE":"US","CENTER_NAME":"EARTH","MEAN_MOTION_DDOT":"0.0000000000000","MEAN_MOTION_DOT":"-0.00129276","OBJECT_ID":"2022-141BA","OBJECT_NAME":"STARLINK-5249","FILE":"3652635","INCLINATION":"53.2162","ELEMENT_SET_NO":"999","OBJECT_TYPE":"PAYLOAD","BSTAR":"-0.00092893000000","ECCENTRICITY":"0.00019600","SITE":"AFWTR","LAUNCH_DATE":"2022-10-28","GP_ID":"217589881","MEAN_ANOMALY":"307.2384","TLE_LINE2":"2 54205  53.2162  65.3113 0001960  28.2891 307.2384 15.73246569  1301","RCS_SIZE":"MEDIUM","MEAN_MOTION":"15.73246569","EPHEMERIS_TYPE":"0","REV_AT_EPOCH":"130","CLASSIFICATION_TYPE":"U","ARG_OF_PERICENTER":"28.2891","DECAY_DATE":null,"EPOCH":"2022-11-12T22:00:00.999936","RA_OF_ASC_NODE":"65.3113"},{"RCS_SIZE":null,"TLE_LINE2":"2 54206  53.2166  64.8823 0001754  30.7329 152.4186 15.74534429  2760","MEAN_ANOMALY":"152.4186","GP_ID":"217561677","LAUNCH_DATE":"2022-10-28","ECCENTRICITY":"0.00017540","SITE":"AFWTR","RA_OF_ASC_NODE":"64.8823","EPOCH":"2022-11-12T22:00:00.999936","DECAY_DATE":null,"CLASSIFICATION_TYPE":"U","ARG_OF_PERICENTER":"30.7329","EPHEMERIS_TYPE":"0","REV_AT_EPOCH":"276","MEAN_MOTION":"15.74534429","NORAD_CAT_ID":"54206","PERIAPSIS":"344.779","TLE_LINE1":"1 54206U 22141BB  22316.91667824 -.00801099  00000-0 -59154-2 0  9999","REF_FRAME":"TEME","MEAN_ELEMENT_THEORY":"SGP4","TIME_SYSTEM":"UTC","APOAPSIS":"347.138","PERIOD":"91.456","SEMIMAJOR_AXIS":"6724.093","INCLINATION":"53.2166","OBJECT_TYPE":"PAYLOAD","BSTAR":"-0.00591540000000","ELEMENT_SET_NO":"999","FILE":"3652458","OBJECT_NAME":"STARLINK-5264","OBJECT_ID":"2022-141BB","MEAN_MOTION_DOT":"-0.00801099","MEAN_MOTION_DDOT":"0.0000000000000","COUNTRY_CODE":"US","CENTER_NAME":"EARTH"},{"DECAY_DATE":null,"EPOCH":"2022-11-12T22:00:00.999936","RA_OF_ASC_NODE":"65.3108","CLASSIFICATION_TYPE":"U","ARG_OF_PERICENTER":"24.2023","EPHEMERIS_TYPE":"0","REV_AT_EPOCH":"130","MEAN_MOTION":"15.73237810","RCS_SIZE":"MEDIUM","MEAN_ANOMALY":"311.9022","TLE_LINE2":"2 54207  53.2165  65.3108 0001845  24.2023 311.9022 15.73237810  1305","LAUNCH_DATE":"2022-10-28","GP_ID":"217590051","ECCENTRICITY":"0.00018450","SITE":"AFWTR","INCLINATION":"53.2165","OBJECT_TYPE":"PAYLOAD","BSTAR":"-0.00074259000000","ELEMENT_SET_NO":"999","OBJECT_NAME":"STARLINK-5262","OBJECT_ID":"2022-141BC","FILE":"3652635","COUNTRY_CODE":"US","CENTER_NAME":"EARTH","MEAN_MOTION_DOT":"-0.00103738","MEAN_MOTION_DDOT":"0.0000000000000","TLE_LINE1":"1 54207U 22141BC  22316.91667824 -.00103738  00000-0 -74259-3 0  9999","NORAD_CAT_ID":"54207","PERIAPSIS":"348.411","APOAPSIS":"350.894","REF_FRAME":"TEME","MEAN_ELEMENT_THEORY":"SGP4","TIME_SYSTEM":"UTC","PERIOD":"91.531","SEMIMAJOR_AXIS":"6727.787"},{"INCLINATION":"53.2161","OBJECT_TYPE":"PAYLOAD","BSTAR":"-0.00087314000000","ELEMENT_SET_NO":"999","OBJECT_NAME":"STARLINK-5255","OBJECT_ID":"2022-141BD","FILE":"3652458","COUNTRY_CODE":"US","CENTER_NAME":"EARTH","MEAN_MOTION_DDOT":"0.0000000000000","MEAN_MOTION_DOT":"-0.00121741","TLE_LINE1":"1 54208U 22141BD  22316.91667824 -.00121741  00000-0 -87314-3 0  9990","NORAD_CAT_ID":"54208","PERIAPSIS":"348.175","APOAPSIS":"350.991","REF_FRAME":"TEME","MEAN_ELEMENT_THEORY":"SGP4","TIME_SYSTEM":"UTC","PERIOD":"91.530","SEMIMAJOR_AXIS":"6727.718","EPOCH":"2022-11-12T22:00:00.999936","DECAY_DATE":null,"RA_OF_ASC_NODE":"65.3072","CLASSIFICATION_TYPE":"U","ARG_OF_PERICENTER":"27.8018","EPHEMERIS_TYPE":"0","REV_AT_EPOCH":"276","MEAN_MOTION":"15.73262142","RCS_SIZE":"MEDIUM","MEAN_ANOMALY":"309.4722","TLE_LINE2":"2 54208  53.2161  65.3072 0002093  27.8018 309.4722 15.73262142  2767","GP_ID":"217561424","LAUNCH_DATE":"2022-10-28","ECCENTRICITY":"0.00020930","SITE":"AFWTR"},{"DECAY_DATE":null,"EPOCH":"2022-11-12T22:00:00.999936","RA_OF_ASC_NODE":"65.3058","ARG_OF_PERICENTER":"16.8762","CLASSIFICATION_TYPE":"U","REV_AT_EPOCH":"276","EPHEMERIS_TYPE":"0","MEAN_MOTION":"15.73260075","RCS_SIZE":"MEDIUM","MEAN_ANOMALY":"321.0221","TLE_LINE2":"2 54209  53.2158  65.3058 0002263  16.8762 321.0221 15.73260075  2768","GP_ID":"217561431","LAUNCH_DATE":"2022-10-28","SITE":"AFWTR","ECCENTRICITY":"0.00022630","OBJECT_TYPE":"PAYLOAD","ELEMENT_SET_NO":"999","BSTAR":"-0.00070523000000","INCLINATION":"53.2158","OBJECT_NAME":"STARLINK-5259","OBJECT_ID":"2022-141BE","FILE":"3652458","CENTER_NAME":"EARTH","COUNTRY_CODE":"US","MEAN_MOTION_DDOT":"0.0000000000000","MEAN_MOTION_DOT":"-0.00098709","TLE_LINE1":"1 54209U 22141BE  22316.91667824 -.00098709  00000-0 -70523-3 0  9992","PERIAPSIS":"348.066","NORAD_CAT_ID":"54209","APOAPSIS":"351.111","TIME_SYSTEM":"UTC","REF_FRAME":"TEME","MEAN_ELEMENT_THEORY":"SGP4","SEMIMAJOR_AXIS":"6727.724","PERIOD":"91.530"}];
